{
  "type": "FeatureCollection",
  "features": [
    {
      "type": "Feature",
      "properties": {
        "norad_id": 33805,
        "name": "COSMOS 2251 DEB",
        "group": "cosmos-2251-debris",
        "lat": -68.58959623482835,
        "lon": -88.91503518552064,
        "alt_km": 737.9062929456368,
        "timestamp": "2025-12-09T05:43:21.118925+00:00",
        "meta_object_name": "COSMOS 2251 DEB",
        "meta_object_id": "1993-036AW",
        "meta_epoch": "2025-12-08T08:39:43.579584",
        "meta_mean_motion": 14.57841007,
        "meta_eccentricity": 0.00603531,
        "meta_inclination": 74.0317,
        "meta_ra_of_asc_node": 319.661,
        "meta_arg_of_pericenter": 149.8952,
        "meta_mean_anomaly": 210.5705,
        "meta_ephemeris_type": 0,
        "meta_classification_type": "U",
        "meta_norad_cat_id": 33805,
        "meta_element_set_no": 999,
        "meta_rev_at_epoch": 89163,
        "meta_bstar": 0.00044804536,
        "meta_mean_motion_dot": 2.074e-05,
        "meta_mean_motion_ddot": 0,
        "tle_line1": "1 33805U 93036AW  25342.36092106  .00002074  00000+0  44805-3 0  9999",
        "tle_line2": "2 33805  74.0317 319.6610 0060353 149.8952 210.5705 14.57841007891638"
      },
      "geometry": {
        "type": "Point",
        "coordinates": [
          -88.91503518552064,
          -68.58959623482835
        ]
      }
    },
    {
      "type": "Feature",
      "properties": {
        "norad_id": 33811,
        "name": "COSMOS 2251 DEB",
        "group": "cosmos-2251-debris",
        "lat": -72.88387264219013,
        "lon": -120.42666746634762,
        "alt_km": 567.258718218528,
        "timestamp": "2025-12-09T05:43:21.118947+00:00",
        "meta_object_name": "COSMOS 2251 DEB",
        "meta_object_id": "1993-036BC",
        "meta_epoch": "2025-12-08T14:40:54.177024",
        "meta_mean_motion": 15.05062931,
        "meta_eccentricity": 0.0030718,
        "meta_inclination": 73.8382,
        "meta_ra_of_asc_node": 311.2158,
        "meta_arg_of_pericenter": 32.6099,
        "meta_mean_anomaly": 89.1941,
        "meta_ephemeris_type": 0,
        "meta_classification_type": "U",
        "meta_norad_cat_id": 33811,
        "meta_element_set_no": 999,
        "meta_rev_at_epoch": 89956,
        "meta_bstar": 0.0016992,
        "meta_mean_motion_dot": 0.00024455,
        "meta_mean_motion_ddot": 0,
        "tle_line1": "1 33811U 93036BC  25342.61173816  .00024455  00000+0  16992-2 0  9994",
        "tle_line2": "2 33811  73.8382 311.2158 0030718  32.6099  89.1941 15.05062931899569"
      },
      "geometry": {
        "type": "Point",
        "coordinates": [
          -120.42666746634762,
          -72.88387264219013
        ]
      }
    },
    {
      "type": "Feature",
      "properties": {
        "norad_id": 33815,
        "name": "COSMOS 2251 DEB",
        "group": "cosmos-2251-debris",
        "lat": -10.544052770656815,
        "lon": 7.001904554595058,
        "alt_km": 518.1381906884526,
        "timestamp": "2025-12-09T05:43:21.118967+00:00",
        "meta_object_name": "COSMOS 2251 DEB",
        "meta_object_id": "1993-036BG",
        "meta_epoch": "2025-12-08T16:32:34.198080",
        "meta_mean_motion": 15.16573654,
        "meta_eccentricity": 0.0003033,
        "meta_inclination": 73.9529,
        "meta_ra_of_asc_node": 185.0812,
        "meta_arg_of_pericenter": 232.8815,
        "meta_mean_anomaly": 200.9428,
        "meta_ephemeris_type": 0,
        "meta_classification_type": "U",
        "meta_norad_cat_id": 33815,
        "meta_element_set_no": 999,
        "meta_rev_at_epoch": 88309,
        "meta_bstar": 0.0069374,
        "meta_mean_motion_dot": 0.00138081,
        "meta_mean_motion_ddot": 0,
        "tle_line1": "1 33815U 93036BG  25342.68928470  .00138081  00000+0  69374-2 0  9992",
        "tle_line2": "2 33815  73.9529 185.0812 0003033 232.8815 200.9428 15.16573654883096"
      },
      "geometry": {
        "type": "Point",
        "coordinates": [
          7.001904554595058,
          -10.544052770656815
        ]
      }
    },
    {
      "type": "Feature",
      "properties": {
        "norad_id": 33816,
        "name": "COSMOS 2251 DEB",
        "group": "cosmos-2251-debris",
        "lat": -39.21353074222325,
        "lon": 97.69426522912357,
        "alt_km": 1151.965823428689,
        "timestamp": "2025-12-09T05:43:21.118984+00:00",
        "meta_object_name": "COSMOS 2251 DEB",
        "meta_object_id": "1993-036BH",
        "meta_epoch": "2025-12-08T19:30:15.806016",
        "meta_mean_motion": 13.81776004,
        "meta_eccentricity": 0.026493,
        "meta_inclination": 73.8945,
        "meta_ra_of_asc_node": 112.0514,
        "meta_arg_of_pericenter": 125.7474,
        "meta_mean_anomaly": 236.8604,
        "meta_ephemeris_type": 0,
        "meta_classification_type": "U",
        "meta_norad_cat_id": 33816,
        "meta_element_set_no": 999,
        "meta_rev_at_epoch": 84619,
        "meta_bstar": 0.00097318,
        "meta_mean_motion_dot": 1.339e-05,
        "meta_mean_motion_ddot": 0,
        "tle_line1": "1 33816U 93036BH  25342.81268294  .00001339  00000+0  97318-3 0  9994",
        "tle_line2": "2 33816  73.8945 112.0514 0264930 125.7474 236.8604 13.81776004846191"
      },
      "geometry": {
        "type": "Point",
        "coordinates": [
          97.69426522912357,
          -39.21353074222325
        ]
      }
    },
    {
      "type": "Feature",
      "properties": {
        "norad_id": 33818,
        "name": "COSMOS 2251 DEB",
        "group": "cosmos-2251-debris",
        "lat": 35.37941646077128,
        "lon": -18.221641312254242,
        "alt_km": 509.0669295739708,
        "timestamp": "2025-12-09T05:43:21.118996+00:00",
        "meta_object_name": "COSMOS 2251 DEB",
        "meta_object_id": "1993-036BK",
        "meta_epoch": "2025-12-08T19:38:10.636224",
        "meta_mean_motion": 15.12021277,
        "meta_eccentricity": 0.0028094,
        "meta_inclination": 74.0754,
        "meta_ra_of_asc_node": 174.3441,
        "meta_arg_of_pericenter": 164.5741,
        "meta_mean_anomaly": 211.7934,
        "meta_ephemeris_type": 0,
        "meta_classification_type": "U",
        "meta_norad_cat_id": 33818,
        "meta_element_set_no": 999,
        "meta_rev_at_epoch": 89803,
        "meta_bstar": 0.0027341,
        "meta_mean_motion_dot": 0.00047703,
        "meta_mean_motion_ddot": 0,
        "tle_line1": "1 33818U 93036BK  25342.81817866  .00047703  00000+0  27341-2 0  9994",
        "tle_line2": "2 33818  74.0754 174.3441 0028094 164.5741 211.7934 15.12021277898030"
      },
      "geometry": {
        "type": "Point",
        "coordinates": [
          -18.221641312254242,
          35.37941646077128
        ]
      }
    },
    {
      "type": "Feature",
      "properties": {
        "norad_id": 33819,
        "name": "COSMOS 2251 DEB",
        "group": "cosmos-2251-debris",
        "lat": -15.722859380555034,
        "lon": 40.7574103005936,
        "alt_km": 817.9099011487142,
        "timestamp": "2025-12-09T05:43:21.119007+00:00",
        "meta_object_name": "COSMOS 2251 DEB",
        "meta_object_id": "1993-036BL",
        "meta_epoch": "2025-12-08T19:06:06.865056",
        "meta_mean_motion": 14.32203322,
        "meta_eccentricity": 0.0088937,
        "meta_inclination": 74.1791,
        "meta_ra_of_asc_node": 216.9791,
        "meta_arg_of_pericenter": 79.5134,
        "meta_mean_anomaly": 355.115,
        "meta_ephemeris_type": 0,
        "meta_classification_type": "U",
        "meta_norad_cat_id": 33819,
        "meta_element_set_no": 999,
        "meta_rev_at_epoch": 87439,
        "meta_bstar": 0.0011045,
        "meta_mean_motion_dot": 3.086e-05,
        "meta_mean_motion_ddot": 0,
        "tle_line1": "1 33819U 93036BL  25342.79591279  .00003086  00000+0  11045-2 0  9999",
        "tle_line2": "2 33819  74.1791 216.9791 0088937  79.5134 355.1150 14.32203322874397"
      },
      "geometry": {
        "type": "Point",
        "coordinates": [
          40.7574103005936,
          -15.722859380555034
        ]
      }
    },
    {
      "type": "Feature",
      "properties": {
        "norad_id": 33821,
        "name": "COSMOS 2251 DEB",
        "group": "cosmos-2251-debris",
        "lat": 36.00733197672182,
        "lon": -41.774944960111974,
        "alt_km": 461.1697702555948,
        "timestamp": "2025-12-09T05:43:21.119018+00:00",
        "meta_object_name": "COSMOS 2251 DEB",
        "meta_object_id": "1993-036BN",
        "meta_epoch": "2025-12-08T19:39:07.426080",
        "meta_mean_motion": 15.24942844,
        "meta_eccentricity": 0.0052841,
        "meta_inclination": 74.0299,
        "meta_ra_of_asc_node": 151.1237,
        "meta_arg_of_pericenter": 185.5709,
        "meta_mean_anomaly": 174.4911,
        "meta_ephemeris_type": 0,
        "meta_classification_type": "U",
        "meta_norad_cat_id": 33821,
        "meta_element_set_no": 999,
        "meta_rev_at_epoch": 74941,
        "meta_bstar": 0.0015603,
        "meta_mean_motion_dot": 0.00040638,
        "meta_mean_motion_ddot": 0,
        "tle_line1": "1 33821U 93036BN  25342.81883595  .00040638  00000+0  15603-2 0  9998",
        "tle_line2": "2 33821  74.0299 151.1237 0052841 185.5709 174.4911 15.24942844749410"
      },
      "geometry": {
        "type": "Point",
        "coordinates": [
          -41.774944960111974,
          36.00733197672182
        ]
      }
    }
  ]
}